CCSDS_OMM_VERS = 2.0
CREATION_DATE  = 
ORIGINATOR     = 

OBJECT_NAME    = SL-4 R/B
OBJECT_ID      = 2014-021B
CENTER_NAME    = EARTH
REF_FRAME      = TEME
TIME_SYSTEM    = UTC
MEAN_ELEMENT_THEORY = SGP/SGP4

EPOCH          = 2025-12-23T06:43:36.714720
MEAN_MOTION    = 15.36902906
ECCENTRICITY   = .01009423
INCLINATION    = 51.6089
RA_OF_ASC_NODE = 349.3593
ARG_OF_PERICENTER = 184.2247
MEAN_ANOMALY   = 175.7894

EPHEMERIS_TYPE = 0
CLASSIFICATION_TYPE = U
NORAD_CAT_ID   = 39679
ELEMENT_SET_NO = 999
REV_AT_EPOCH   = 64451
BSTAR          = .27061497E-3
MEAN_MOTION_DOT = .11347E-3
MEAN_MOTION_DDOT = 0

CCSDS_OMM_VERS = 2.0
CREATION_DATE  = 
ORIGINATOR     = 

OBJECT_NAME    = ALOS-2
OBJECT_ID      = 2014-029A
CENTER_NAME    = EARTH
REF_FRAME      = TEME
TIME_SYSTEM    = UTC
MEAN_ELEMENT_THEORY = SGP/SGP4

EPOCH          = 2025-12-23T21:39:33.546240
MEAN_MOTION    = 14.79470935
ECCENTRICITY   = .0001368
INCLINATION    = 97.9228
RA_OF_ASC_NODE = 92.5900
ARG_OF_PERICENTER = 97.1677
MEAN_ANOMALY   = 262.9690

EPHEMERIS_TYPE = 0
CLASSIFICATION_TYPE = U
NORAD_CAT_ID   = 39766
ELEMENT_SET_NO = 999
REV_AT_EPOCH   = 62566
BSTAR          = .28990356E-3
MEAN_MOTION_DOT = .2114E-4
MEAN_MOTION_DDOT = 0

CCSDS_OMM_VERS = 2.0
CREATION_DATE  = 
ORIGINATOR     = 

OBJECT_NAME    = YAOGAN-29
OBJECT_ID      = 2015-069A
CENTER_NAME    = EARTH
REF_FRAME      = TEME
TIME_SYSTEM    = UTC
MEAN_ELEMENT_THEORY = SGP/SGP4

EPOCH          = 2025-12-23T22:52:47.042400
MEAN_MOTION    = 14.82892873
ECCENTRICITY   = .00008129
INCLINATION    = 98.0204
RA_OF_ASC_NODE = 21.1600
ARG_OF_PERICENTER = 170.9921
MEAN_ANOMALY   = 189.1307

EPHEMERIS_TYPE = 0
CLASSIFICATION_TYPE = U
NORAD_CAT_ID   = 41038
ELEMENT_SET_NO = 999
REV_AT_EPOCH   = 54465
BSTAR          = .47213215E-4
MEAN_MOTION_DOT = .328E-5
MEAN_MOTION_DDOT = 0

CCSDS_OMM_VERS = 2.0
CREATION_DATE  = 
ORIGINATOR     = 

OBJECT_NAME    = ASTRO-H (HITOMI)
OBJECT_ID      = 2016-012A
CENTER_NAME    = EARTH
REF_FRAME      = TEME
TIME_SYSTEM    = UTC
MEAN_ELEMENT_THEORY = SGP/SGP4

EPOCH          = 2025-12-23T11:15:47.686752
MEAN_MOTION    = 15.09417397
ECCENTRICITY   = .00097168
INCLINATION    = 30.9988
RA_OF_ASC_NODE = 128.1956
ARG_OF_PERICENTER = 286.3242
MEAN_ANOMALY   = 73.6327

EPHEMERIS_TYPE = 0
CLASSIFICATION_TYPE = U
NORAD_CAT_ID   = 41337
ELEMENT_SET_NO = 999
REV_AT_EPOCH   = 54070
BSTAR          = .21083386E-3
MEAN_MOTION_DOT = .3552E-4
MEAN_MOTION_DDOT = 0

CCSDS_OMM_VERS = 2.0
CREATION_DATE  = 
ORIGINATOR     = 

OBJECT_NAME    = HXMT (HUIYAN)
OBJECT_ID      = 2017-034A
CENTER_NAME    = EARTH
REF_FRAME      = TEME
TIME_SYSTEM    = UTC
MEAN_ELEMENT_THEORY = SGP/SGP4

EPOCH          = 2025-12-23T22:09:47.814048
MEAN_MOTION    = 15.16359826
ECCENTRICITY   = .00311258
INCLINATION    = 43.0147
RA_OF_ASC_NODE = 77.5626
ARG_OF_PERICENTER = 116.9061
MEAN_ANOMALY   = 243.4973

EPHEMERIS_TYPE = 0
CLASSIFICATION_TYPE = U
NORAD_CAT_ID   = 42758
ELEMENT_SET_NO = 999
REV_AT_EPOCH   = 47103
BSTAR          = .30481273E-3
MEAN_MOTION_DOT = .5858E-4
MEAN_MOTION_DDOT = 0

CCSDS_OMM_VERS = 2.0
CREATION_DATE  = 
ORIGINATOR     = 

OBJECT_NAME    = CZ-2C R/B
OBJECT_ID      = 2018-054D
CENTER_NAME    = EARTH
REF_FRAME      = TEME
TIME_SYSTEM    = UTC
MEAN_ELEMENT_THEORY = SGP/SGP4

EPOCH          = 2025-12-23T10:40:54.607008
MEAN_MOTION    = 15.76275143
ECCENTRICITY   = .00149058
INCLINATION    = 35.1340
RA_OF_ASC_NODE = 108.1809
ARG_OF_PERICENTER = 251.3310
MEAN_ANOMALY   = 108.5806

EPHEMERIS_TYPE = 0
CLASSIFICATION_TYPE = U
NORAD_CAT_ID   = 43521
ELEMENT_SET_NO = 999
REV_AT_EPOCH   = 41674
BSTAR          = .66082822E-3
MEAN_MOTION_DOT = .110042E-2
MEAN_MOTION_DDOT = 0

CCSDS_OMM_VERS = 2.0
CREATION_DATE  = 
ORIGINATOR     = 

OBJECT_NAME    = SAOCOM 1A
OBJECT_ID      = 2018-076A
CENTER_NAME    = EARTH
REF_FRAME      = TEME
TIME_SYSTEM    = UTC
MEAN_ELEMENT_THEORY = SGP/SGP4

EPOCH          = 2025-12-23T22:42:28.403712
MEAN_MOTION    = 14.82144014
ECCENTRICITY   = .00013742
INCLINATION    = 97.8839
RA_OF_ASC_NODE = 182.2050
ARG_OF_PERICENTER = 83.0832
MEAN_ANOMALY   = 277.0537

EPHEMERIS_TYPE = 0
CLASSIFICATION_TYPE = U
NORAD_CAT_ID   = 43641
ELEMENT_SET_NO = 999
REV_AT_EPOCH   = 39014
BSTAR          = .70103184E-4
MEAN_MOTION_DOT = .506E-5
MEAN_MOTION_DDOT = 0

CCSDS_OMM_VERS = 2.0
CREATION_DATE  = 
ORIGINATOR     = 

OBJECT_NAME    = H-2A R/B
OBJECT_ID      = 2018-084L
CENTER_NAME    = EARTH
REF_FRAME      = TEME
TIME_SYSTEM    = UTC
MEAN_ELEMENT_THEORY = SGP/SGP4

EPOCH          = 2025-12-23T11:53:34.325952
MEAN_MOTION    = 15.37744925
ECCENTRICITY   = .00266225
INCLINATION    = 98.8767
RA_OF_ASC_NODE = 193.8069
ARG_OF_PERICENTER = 288.7559
MEAN_ANOMALY   = 71.0792

EPHEMERIS_TYPE = 0
CLASSIFICATION_TYPE = U
NORAD_CAT_ID   = 43682
ELEMENT_SET_NO = 999
REV_AT_EPOCH   = 39405
BSTAR          = .52792317E-3
MEAN_MOTION_DOT = .19727E-3
MEAN_MOTION_DDOT = 0

CCSDS_OMM_VERS = 2.0
CREATION_DATE  = 
ORIGINATOR     = 

OBJECT_NAME    = SAOCOM 1B
OBJECT_ID      = 2020-059A
CENTER_NAME    = EARTH
REF_FRAME      = TEME
TIME_SYSTEM    = UTC
MEAN_ELEMENT_THEORY = SGP/SGP4

EPOCH          = 2025-12-23T23:27:29.887200
MEAN_MOTION    = 14.82148360
ECCENTRICITY   = .00014411
INCLINATION    = 97.8835
RA_OF_ASC_NODE = 181.3357
ARG_OF_PERICENTER = 84.2214
MEAN_ANOMALY   = 275.9163

EPHEMERIS_TYPE = 0
CLASSIFICATION_TYPE = U
NORAD_CAT_ID   = 46265
ELEMENT_SET_NO = 999
REV_AT_EPOCH   = 28753
BSTAR          = .43611983E-4
MEAN_MOTION_DOT = .295E-5
MEAN_MOTION_DDOT = 0

CCSDS_OMM_VERS = 2.0
CREATION_DATE  = 
ORIGINATOR     = 

OBJECT_NAME    = CSS (TIANHE)
OBJECT_ID      = 2021-035A
CENTER_NAME    = EARTH
REF_FRAME      = TEME
TIME_SYSTEM    = UTC
MEAN_ELEMENT_THEORY = SGP/SGP4

EPOCH          = 2025-12-23T22:08:03.098976
MEAN_MOTION    = 15.59613430
ECCENTRICITY   = .00080636
INCLINATION    = 41.4684
RA_OF_ASC_NODE = 308.7959
ARG_OF_PERICENTER = 129.7983
MEAN_ANOMALY   = 230.3567

EPHEMERIS_TYPE = 0
CLASSIFICATION_TYPE = U
NORAD_CAT_ID   = 48274
ELEMENT_SET_NO = 999
REV_AT_EPOCH   = 26577
BSTAR          = .17429265E-3
MEAN_MOTION_DOT = .1399E-3
MEAN_MOTION_DDOT = 0

CCSDS_OMM_VERS = 2.0
CREATION_DATE  = 
ORIGINATOR     = 

OBJECT_NAME    = COSMOS 2550
OBJECT_ID      = 2021-056A
CENTER_NAME    = EARTH
REF_FRAME      = TEME
TIME_SYSTEM    = UTC
MEAN_ELEMENT_THEORY = SGP/SGP4

EPOCH          = 2025-12-24T01:43:54.888384
MEAN_MOTION    = 15.33843348
ECCENTRICITY   = .0008386
INCLINATION    = 67.1431
RA_OF_ASC_NODE = 269.6564
ARG_OF_PERICENTER = 268.9591
MEAN_ANOMALY   = 91.0603

EPHEMERIS_TYPE = 0
CLASSIFICATION_TYPE = U
NORAD_CAT_ID   = 48865
ELEMENT_SET_NO = 999
REV_AT_EPOCH   = 25186
BSTAR          = .15482E-5
MEAN_MOTION_DOT = -.141E-5
MEAN_MOTION_DDOT = 0

CCSDS_OMM_VERS = 2.0
CREATION_DATE  = 
ORIGINATOR     = 

OBJECT_NAME    = CZ-2C R/B
OBJECT_ID      = 2022-058K
CENTER_NAME    = EARTH
REF_FRAME      = TEME
TIME_SYSTEM    = UTC
MEAN_ELEMENT_THEORY = SGP/SGP4

EPOCH          = 2025-12-23T17:03:39.136032
MEAN_MOTION    = 15.49015030
ECCENTRICITY   = .00447408
INCLINATION    = 50.1920
RA_OF_ASC_NODE = 347.5778
ARG_OF_PERICENTER = 243.8099
MEAN_ANOMALY   = 115.8265

EPHEMERIS_TYPE = 0
CLASSIFICATION_TYPE = U
NORAD_CAT_ID   = 52794
ELEMENT_SET_NO = 999
REV_AT_EPOCH   = 19833
BSTAR          = .44887073E-3
MEAN_MOTION_DOT = .254E-3
MEAN_MOTION_DDOT = 0

