SL-4 R/B                
1 39679U 14021B   25357.28028605  .00011347  00000+0  27061-3 0  9999
2 39679  51.6089 349.3593 0100942 184.2247 175.7894 15.36902906644517
ALOS-2                  
1 39766U 14029A   25357.90247160  .00002114  00000+0  28990-3 0  9996
2 39766  97.9228  92.5900 0001368  97.1677 262.9690 14.79470935625668
YAOGAN-29               
1 41038U 15069A   25357.95332225  .00000328  00000+0  47213-4 0  9993
2 41038  98.0204  21.1600 0000812 170.9921 189.1307 14.82892873544656
ASTRO-H (HITOMI)        
1 41337U 16012A   25357.46930193  .00003552  00000+0  21083-3 0  9996
2 41337  30.9988 128.1956 0009716 286.3242  73.6327 15.09417397540709
HXMT (HUIYAN)           
1 42758U 17034A   25357.92347007  .00005858  00000+0  30481-3 0  9999
2 42758  43.0147  77.5626 0031125 116.9061 243.4973 15.16359826471039
CZ-2C R/B               
1 43521U 18054D   25357.44507647  .00110042  00000+0  66083-3 0  9995
2 43521  35.1340 108.1809 0014905 251.3310 108.5806 15.76275143416745
SAOCOM 1A               
1 43641U 18076A   25357.94616208  .00000506  00000+0  70103-4 0  9993
2 43641  97.8839 182.2050 0001374  83.0832 277.0537 14.82144014390148
H-2A R/B                
1 43682U 18084L   25357.49553618  .00019727  00000+0  52792-3 0  9990
2 43682  98.8767 193.8069 0026622 288.7559  71.0792 15.37744925394052
SAOCOM 1B               
1 46265U 20059A   25357.97742925  .00000295  00000+0  43612-4 0  9991
2 46265  97.8835 181.3357 0001441  84.2214 275.9163 14.82148360287539
CSS (TIANHE)            
1 48274U 21035A   25357.92225809  .00013990  00000+0  17429-3 0  9992
2 48274  41.4684 308.7959 0008063 129.7983 230.3567 15.59613430265771
COSMOS 2550             
1 48865U 21056A   25358.07216306 -.00000141  00000+0  15482-5 0  9994
2 48865  67.1431 269.6564 0008386 268.9591  91.0603 15.33843348251861
CZ-2C R/B               
1 52794U 22058K   25357.71086963  .00025400  00000+0  44887-3 0  9990
2 52794  50.1920 347.5778 0044740 243.8099 115.8265 15.49015030198331
